OBJECT_NAME,OBJECT_ID,EPOCH,MEAN_MOTION,ECCENTRICITY,INCLINATION,RA_OF_ASC_NODE,ARG_OF_PERICENTER,MEAN_ANOMALY,EPHEMERIS_TYPE,CLASSIFICATION_TYPE,NORAD_CAT_ID,ELEMENT_SET_NO,REV_AT_EPOCH,BSTAR,MEAN_MOTION_DOT,MEAN_MOTION_DDOT
IRIDIUM 135,2017-083A,2026-07-17T06:59:51.178848,14.34218067,.00022151,86.3985,309.4317,94.4062,265.7387,0,U,43070,999,44846,.13676646E-4,.58E-6,0
IRIDIUM 138,2017-083B,2026-07-17T05:55:54.934176,14.34219120,.00020609,86.3999,309.1504,92.8202,267.3230,0,U,43071,999,44844,.43166201E-4,.141E-5,0
IRIDIUM 116,2017-083C,2026-07-17T06:50:43.065024,14.34218141,.0002498,86.3985,309.4198,97.5580,262.5899,0,U,43072,999,44848,.37483073E-4,.125E-5,0
IRIDIUM 130,2017-083D,2026-07-17T14:27:23.343264,14.34218480,.00023156,86.3994,309.5657,100.5746,259.5711,0,U,43073,999,44847,.42110404E-4,.138E-5,0
IRIDIUM 151,2017-083E,2026-07-17T13:50:51.182592,14.34218278,.00022715,86.3988,309.3565,94.9403,265.2052,0,U,43074,999,44849,.29547231E-4,.103E-5,0
IRIDIUM 134,2017-083F,2026-07-17T06:23:19.209120,14.34217795,.00022452,86.3990,309.4946,95.7706,264.3746,0,U,43075,999,44841,.7011484E-5,.39E-6,0
IRIDIUM 137,2017-083G,2026-07-17T13:23:27.275712,14.34217870,.00026801,86.3991,309.4662,93.2307,266.9195,0,U,43076,999,44852,.6231033E-5,.37E-6,0
IRIDIUM 141,2017-083H,2026-07-17T13:14:19.143744,14.34217913,.00021813,86.3985,309.2978,93.8087,266.3358,0,U,43077,999,44852,.21144985E-4,.79E-6,0
IRIDIUM 153,2017-083J,2026-07-17T05:23:35.398464,14.34217841,.00021323,86.3959,277.9134,95.2478,264.8961,0,U,43078,999,44958,.11129285E-4,.51E-6,0
IRIDIUM 131,2017-083K,2026-07-17T07:54:39.167136,14.34218109,.00022266,86.3990,309.5786,94.5395,265.6055,0,U,43079,999,44842,.14271476E-4,.6E-6,0
IRIDIUM 144,2018-030A,2026-07-17T03:52:15.348864,14.34218360,.00024002,86.3955,277.8683,96.6450,263.5019,0,U,43249,999,43443,.24428658E-4,.88E-6,0
IRIDIUM 149,2018-030B,2026-07-17T05:41:51.420480,14.34218020,.00022535,86.3955,277.8031,93.4659,266.6795,0,U,43250,999,43446,.17309112E-4,.68E-6,0
IRIDIUM 157,2018-030C,2026-07-17T04:28:47.570016,14.34218501,.00022694,86.3958,277.8784,94.1706,265.9750,0,U,43251,999,43443,.42136092E-4,.138E-5,0
IRIDIUM 140,2018-030D,2026-07-17T04:56:11.629824,14.34218117,.00022516,86.3957,277.8828,95.7254,264.4199,0,U,43252,999,43449,.43063829E-4,.14E-5,0
IRIDIUM 145,2018-030E,2026-07-17T04:37:55.427232,14.34217625,.00025708,86.3956,277.8601,99.6724,260.4762,0,U,43253,999,43442,.28337605E-4,.99E-6,0
IRIDIUM 146,2018-030F,2026-07-17T05:50:59.460000,14.34217605,.00023802,86.3957,277.8512,95.8354,264.3113,0,U,43254,999,43444,.14117027E-4,.59E-6,0
IRIDIUM 148,2018-030G,2026-07-17T11:47:11.607648,14.34218554,.0002343,86.3958,277.7911,93.2547,266.8917,0,U,43255,999,43451,.42161816E-4,.138E-5,0
IRIDIUM 142,2018-030H,2026-07-17T04:19:39.469152,14.34217884,.00024441,86.3954,277.8091,96.1549,263.9925,0,U,43256,999,43443,.11404919E-4,.52E-6,0
IRIDIUM 150,2018-030J,2026-07-17T15:17:15.363168,14.34217495,.00022915,86.3958,277.7356,96.3396,263.8061,0,U,43257,999,43452,.42368171E-4,.138E-5,0
IRIDIUM 143,2018-030K,2026-07-17T11:28:55.511328,14.34217925,.00023618,86.3961,277.8956,97.1311,263.0153,0,U,43258,999,43443,.24983648E-4,.9E-6,0
IRIDIUM 161,2018-047C,2026-07-17T04:32:30.871680,14.43276266,.00022265,86.4460,75.9240,80.7125,279.4328,0,U,43478,999,42946,.38757401E-4,.151E-5,0
IRIDIUM 152,2018-047D,2026-07-17T04:07:46.267392,14.34218441,.00021368,86.3933,75.7924,84.1747,275.9693,0,U,43479,999,42678,.13723552E-4,.58E-6,0
IRIDIUM 147,2018-047E,2026-07-17T16:00:10.280160,14.34217498,.00022863,86.3935,75.5912,87.9760,272.1698,0,U,43480,999,42685,.15323567E-4,.63E-6,0
IRIDIUM 110,2018-047F,2026-07-17T01:05:06.056736,14.34219059,.00020763,86.3938,75.9440,77.7019,282.4409,0,U,43481,999,42675,.43965274E-4,.143E-5,0
IRIDIUM 162,2018-047G,2026-07-17T16:02:17.986272,14.43279190,.00021981,86.4457,75.6141,86.9446,273.2007,0,U,43482,999,42952,.43135092E-4,.165E-5,0
IRIDIUM 160,2018-061A,2026-07-17T13:10:50.435904,14.34217595,.00022248,86.3939,44.0968,86.7335,273.4115,0,U,43569,999,41772,.34124593E-4,.115E-5,0
IRIDIUM 166,2018-061B,2026-07-17T12:06:54.493632,14.34217721,.00022894,86.3937,44.0655,89.8334,270.3124,0,U,43570,999,41774,.3094923E-5,.28E-6,0
IRIDIUM 158,2018-061C,2026-07-17T13:01:42.430080,14.34217903,.00021022,86.3938,44.0591,88.2543,271.8893,0,U,43571,999,41771,.10658083E-4,.5E-6,0
IRIDIUM 165,2018-061D,2026-07-17T01:54:58.562208,14.34217437,.00022776,86.3940,44.3002,90.0670,270.0787,0,U,43572,999,41767,.11069306E-4,.51E-6,0
IRIDIUM 155,2018-061E,2026-07-17T12:43:26.474592,14.34217584,.00021454,86.3936,43.9793,90.7200,269.4242,0,U,43573,999,41770,.6514477E-5,.38E-6,0
